[{"OBJECT_NAME":"SKYKRAFT-1A","OBJECT_ID":"2023-001AX","EPOCH":"2026-03-09T17:03:19.828224","MEAN_MOTION":15.28083228,"ECCENTRICITY":0.00112767,"INCLINATION":97.3349,"RA_OF_ASC_NODE":127.629,"ARG_OF_PERICENTER":121.5092,"MEAN_ANOMALY":238.7251,"EPHEMERIS_TYPE":0,"CLASSIFICATION_TYPE":"U","NORAD_CAT_ID":55054,"ELEMENT_SET_NO":999,"REV_AT_EPOCH":17652,"BSTAR":0.0003006872,"MEAN_MOTION_DOT":8.177e-5,"MEAN_MOTION_DDOT":0},{"OBJECT_NAME":"STARLINK-32459","OBJECT_ID":"2024-196J","EPOCH":"2026-03-09T11:08:32.486496","MEAN_MOTION":15.30222698,"ECCENTRICITY":8.076e-5,"INCLINATION":53.1602,"RA_OF_ASC_NODE":102.2746,"ARG_OF_PERICENTER":100.2867,"MEAN_ANOMALY":259.8225,"EPHEMERIS_TYPE":0,"CLASSIFICATION_TYPE":"U","NORAD_CAT_ID":61715,"ELEMENT_SET_NO":999,"REV_AT_EPOCH":7712,"BSTAR":-0.00023248969,"MEAN_MOTION_DOT":-7.243e-5,"MEAN_MOTION_DDOT":0}]
