SKYKRAFT-1A             
1 55054U 23001AX  26068.71064616  .00008177  00000+0  30069-3 0  9991
2 55054  97.3349 127.6290 0011277 121.5092 238.7251 15.28083228176529
STARLINK-32459          
1 61715U 24196J   26068.46426489 -.00007243  00000+0 -23249-3 0  9997
2 61715  53.1602 102.2746 0000807 100.2867 259.8225 15.30222698 77128
